     2.100          NAVIGATION                              RINEX VERSION / TYPE
fic2rin                                 10/03/2016 00:04:00 PGM / RUN BY / DATE
                                                            END OF HEADER
23 16 10  2 18  0  0.0 -.191989820451D-03 -.136424205266D-11  .000000000000D+00
     .440000000000D+02  .927500000000D+02  .470805325217D-08 -.202406913492D+01
     .464543700218D-05  .111317391274D-01  .898912549019D-05  .515361195564D+04
     .648000000000D+05  .502914190292D-07 -.245451588304D+01 -.108033418655D-06
     .945581891144D+00  .197812500000D+03 -.252747567457D+01 -.802104839458D-08
     .325013538118D-09  .100000000000D+01  .191700000000D+04  .000000000000D+00
     .240000000000D+01  .000000000000D+00 -.200234353542D-07  .440000000000D+02
     .576060000000D+05  .400000000000D+01
24 16 10  2 18  0  0.0 -.240169465542D-04 -.568434188608D-12  .000000000000D+00
     .370000000000D+02  .126562500000D+02  .509164065870D-08 -.256818540485D+01
     .707805156708D-06  .472832960077D-02  .231526792049D-05  .515372058487D+04
     .648000000000D+05 -.391155481339D-07 -.142906152039D+01 -.130385160446D-07
     .947648805674D+00  .328156250000D+03  .392303419412D+00 -.857249993617D-08
     .767889128522D-10  .100000000000D+01  .191700000000D+04  .000000000000D+00
     .240000000000D+01  .000000000000D+00  .232830643654D-08  .370000000000D+02
     .576060000000D+05  .400000000000D+01
25 16 10  2 18  0  0.0 -.256415456533D-03 -.693489710102D-11  .000000000000D+00
     .870000000000D+02 -.914687500000D+02  .391230582038D-08  .160194976124D+01
    -.478141009808D-05  .560432067141D-02  .911951065063D-05  .515369604874D+04
     .648000000000D+05 -.633299350739D-07 -.353107039846D+00 -.223517417908D-07
     .978470210377D+00  .211781250000D+03  .781589206019D+00 -.787247077715D-08
    -.332156692802D-09  .100000000000D+01  .191700000000D+04  .000000000000D+00
     .240000000000D+01  .000000000000D+00  .558793544769D-08  .870000000000D+02
     .576060000000D+05  .400000000000D+01
26 16 10  2 18  0  0.0 -.480122398585D-03 -.648014975013D-11  .000000000000D+00
     .280000000000D+02 -.878750000000D+02  .429053586090D-08  .117527522638D+01
    -.453367829323D-05  .102026225068D-02  .903382897377D-05  .515359251976D+04
     .648000000000D+05 -.279396772385D-07 -.364332263353D+00  .931322574615D-08
     .960361549153D+00  .204937500000D+03 -.124232036112D+00 -.799854745732D-08
    -.274654297597D-09  .100000000000D+01  .191700000000D+04  .000000000000D+00
     .240000000000D+01  .000000000000D+00  .698491930962D-08  .280000000000D+02
     .576060000000D+05  .400000000000D+01
27 16 10  2 18  0  0.0  .146756414324D-03  .488853402203D-11  .000000000000D+00
     .320000000000D+02  .359375000000D+02  .415303013323D-08 -.733581890299D+00
     .192038714886D-05  .382538652048D-02  .100918114185D-04  .515365500641D+04
     .648000000000D+05  .726431608200D-07  .686858773808D+00 -.223517417908D-07
     .972660150765D+00  .190750000000D+03  .338845142192D+00 -.787425656582D-08
     .502163774280D-09  .100000000000D+01  .191700000000D+04  .000000000000D+00
     .240000000000D+01  .000000000000D+00  .186264514923D-08  .320000000000D+02
     .576060000000D+05  .400000000000D+01
28 16 10  2 18  0  0.0  .556359998882D-03  .284217094304D-11  .000000000000D+00
     .280000000000D+02 -.713437500000D+02  .372372653673D-08  .110931935412D+00
    -.379234552383D-05  .199124665232D-01  .104811042547D-04  .515363448334D+04
     .648000000000D+05 -.350177288055D-06 -.277096777393D+00 -.167638063431D-07
     .989627421360D+00  .197718750000D+03 -.161108489028D+01 -.797461788913D-08
    -.286440502825D-09  .100000000000D+01  .191700000000D+04  .000000000000D+00
     .240000000000D+01  .000000000000D+00 -.107102096081D-07  .280000000000D+02
     .576060000000D+05  .400000000000D+01
29 16 10  2 18  0  0.0  .649060588330D-03 -.125055521494D-11  .000000000000D+00
     .690000000000D+02  .376875000000D+02  .407374111624D-08  .126923689661D+01
     .173039734364D-05  .519653200172D-03  .102464109659D-04  .515374085999D+04
     .648000000000D+05  .335276126862D-07  .747346820052D+00  .111758708954D-07
     .978694123156D+00  .194281250000D+03  .822715137959D-01 -.774996567432D-08
     .550022910662D-09  .100000000000D+01  .191700000000D+04  .000000000000D+00
     .240000000000D+01  .000000000000D+00 -.102445483208D-07  .690000000000D+02
     .576060000000D+05  .400000000000D+01
30 16 10  2 18  0  0.0  .152670312673D-03  .136424205266D-11  .000000000000D+00
     .570000000000D+02 -.118437500000D+02  .509664086698D-08  .276048022101D+01
    -.651925802231D-06  .239780452102D-02  .229477882385D-05  .515376148796D+04
     .648000000000D+05 -.353902578354D-07 -.133731259568D+01 -.204890966415D-07
     .950375177341D+00  .331093750000D+03 -.312589769455D+01 -.859250076929D-08
    -.110361739867D-09  .100000000000D+01  .191700000000D+04  .000000000000D+00
     .240000000000D+01  .000000000000D+00  .372529029846D-08  .570000000000D+02
     .576060000000D+05  .400000000000D+01
31 16 10  2 18  0  0.0  .244712457061D-03 -.216004991671D-11  .000000000000D+00
     .470000000000D+02  .184375000000D+01  .460733477113D-08  .258596449112D+01
     .160187482834D-06  .835326395463D-02  .245124101639D-05  .515356006432D+04
     .648000000000D+05 -.186264514923D-07 -.136972601952D+01  .117346644402D-06
     .969384930271D+00  .340406250000D+03 -.377470767195D+00 -.826820154664D-08
    -.889322758148D-10  .100000000000D+01  .191700000000D+04  .000000000000D+00
     .240000000000D+01  .000000000000D+00 -.135041773319D-07  .470000000000D+02
     .576060000000D+05  .400000000000D+01
32 16 10  2 18  0  0.0 -.138231087476D-03 -.152340362547D-10  .000000000000D+00
     .290000000000D+02  .771250000000D+02  .449161566525D-08 -.302855111862D+00
     .393204391003D-05  .629700371064D-03  .967644155025D-05  .515365545082D+04
     .648000000000D+05  .931322574615D-08 -.245652125115D+01 -.745058059692D-08
     .959233226771D+00  .192125000000D+03 -.235978747405D+01 -.805890711440D-08
     .165721188667D-09  .100000000000D+01  .191700000000D+04  .000000000000D+00
     .240000000000D+01  .000000000000D+00  .931322574615D-09  .290000000000D+02
     .576060000000D+05  .400000000000D+01
12 16 10  2 17 59 44.0  .389040913433D-03  .227373675443D-12  .000000000000D+00
     .270000000000D+02 -.898125000000D+02  .358157775852D-08  .213607885621D+01
    -.464357435703D-05  .604240526445D-02  .984780490398D-05  .515365544701D+04
     .647840000000D+05 -.596046447754D-07 -.300705263044D+00 -.912696123123D-07
     .990381508817D+00  .204250000000D+03  .787440843226D+00 -.765031866648D-08
    -.272154193457D-09  .100000000000D+01  .191700000000D+04  .000000000000D+00
     .240000000000D+01  .000000000000D+00 -.125728547573D-07  .270000000000D+02
     .578760000000D+05  .400000000000D+01
12 16 10  2 19 59 44.0  .389042310417D-03  .227373675443D-12  .000000000000D+00
     .330000000000D+02 -.885625000000D+02  .356336271407D-08 -.309682623831D+01
    -.451691448689D-05  .604281201959D-02  .101011246443D-04  .515365428543D+04
     .719840000000D+05  .391155481339D-07 -.300759711392D+00 -.223517417908D-07
     .990379972753D+00  .197750000000D+03  .787346506954D+00 -.754031408435D-08
    -.292512184307D-09  .100000000000D+01  .191700000000D+04  .000000000000D+00
     .240000000000D+01  .000000000000D+00 -.125728547573D-07  .330000000000D+02
     .648060000000D+05  .400000000000D+01
 1 16 10  2 20  0  0.0  .359318219125D-04  .125055521494D-11  .000000000000D+00
     .760000000000D+02 -.156250000000D+00  .492984820511D-08 -.183255779917D+01
    -.169500708580D-06  .592091539875D-02  .376999378204D-05  .515369623756D+04
     .720000000000D+05  .875443220139D-07  .174485079862D+01 -.391155481339D-07
     .964982883959D+00  .307656250000D+03  .558622401757D+00 -.833784730481D-08
     .179293182566D-09  .100000000000D+01  .191700000000D+04  .000000000000D+00
     .240000000000D+01  .000000000000D+00  .512227416039D-08  .760000000000D+02
     .648060000000D+05  .400000000000D+01
 2 16 10  2 20  0  0.0  .545160844922D-03 -.511590769747D-11  .000000000000D+00
     .181000000000D+03  .525000000000D+01  .545915596719D-08 -.136849003222D+01
     .648200511932D-06  .159763940610D-01  .336021184921D-05  .515363827896D+04
     .720000000000D+05  .316649675369D-06  .169654239095D+01  .219792127609D-06
     .943798752001D+00  .302000000000D+03 -.208096271245D+01 -.856928551657D-08
     .161078138122D-09  .100000000000D+01  .191700000000D+04  .000000000000D+00
     .240000000000D+01  .000000000000D+00 -.204890966415D-07  .181000000000D+03
     .648060000000D+05  .400000000000D+01
 3 16 10  2 20  0  0.0 -.903499312699D-04 -.193267624127D-11  .000000000000D+00
     .470000000000D+02 -.436250000000D+02  .452947438507D-08 -.290663376709D+01
    -.231713056564D-05  .227610813454D-03  .100992619991D-04  .515361608696D+04
     .720000000000D+05 -.800937414169D-07  .278675510893D+01 -.540167093277D-07
     .959840511861D+00  .183406250000D+03  .506385092057D+00 -.801426239763D-08
    -.442518432669D-09  .100000000000D+01  .191700000000D+04  .000000000000D+00
     .240000000000D+01  .000000000000D+00  .139698386192D-08  .470000000000D+02
     .648060000000D+05  .400000000000D+01
 4 16 10  2 20  0  0.0  .466266646981D-05  .306954461848D-11  .000000000000D+00
     .120000000000D+02  .965937500000D+02  .438661129140D-08  .173947626874D+01
     .493228435516D-05  .841687782668D-02  .810809433460D-05  .515360798836D+04
     .720000000000D+05  .162050127983D-06 -.233732477071D+01  .130385160446D-07
     .966367399870D+00  .218375000000D+03 -.101032036394D+01 -.796497463031D-08
     .173221501085D-09  .100000000000D+01  .191700000000D+04  .000000000000D+00
     .485000000000D+01  .630000000000D+02 -.372529029846D-08  .120000000000D+02
     .648060000000D+05  .400000000000D+01
